[{"OBJECT_NAME":"STARLINK-5952","OBJECT_ID":"2023-083AZ","EPOCH":"2026-03-09T22:00:01.999584","MEAN_MOTION":15.07901533,"ECCENTRICITY":0.00011359,"INCLINATION":43.0007,"RA_OF_ASC_NODE":67.354,"ARG_OF_PERICENTER":303.977,"MEAN_ANOMALY":166.0344,"EPHEMERIS_TYPE":0,"CLASSIFICATION_TYPE":"U","NORAD_CAT_ID":56923,"ELEMENT_SET_NO":999,"REV_AT_EPOCH":578,"BSTAR":0.0043978812,"MEAN_MOTION_DOT":0.0006909,"MEAN_MOTION_DDOT":0},{"OBJECT_NAME":"LEMUR-2-TILLINFINITY","OBJECT_ID":"2025-061F","EPOCH":"2026-03-09T21:40:30.357696","MEAN_MOTION":15.139452,"ECCENTRICITY":0.00168906,"INCLINATION":97.5532,"RA_OF_ASC_NODE":45.5587,"ARG_OF_PERICENTER":226.702,"MEAN_ANOMALY":133.2804,"EPHEMERIS_TYPE":0,"CLASSIFICATION_TYPE":"U","NORAD_CAT_ID":63356,"ELEMENT_SET_NO":999,"REV_AT_EPOCH":5261,"BSTAR":0.00030453504,"MEAN_MOTION_DOT":5.472e-5,"MEAN_MOTION_DDOT":0}]
